{"_default": { "13": {"norad_id": "41847", "name": "CZ-11 R/B", "tle1": "1 41847U 16066G   26162.21485714  .00001469  00000-0  21323-3 0  9996", "tle2": "2 41847  98.3821 238.0193 0342591 147.5449 214.7325 14.44674149503939", "object_type": "ROCKET_BODY", "criticality_score": 9.0, "last_updated": "2026-06-11T13:56:27.956741+00:00", "maneuver_count": 0}, "14": {"norad_id": "41789", "name": "ALSAT 1N", "tle1": "1 41789U 16059G   26162.25891352  .00000764  00000-0  13690-3 0  9991", "tle2": "2 41789  97.8011 165.8737 0024994 204.0509 155.9532 14.69297601519136", "object_type": "PAYLOAD", "criticality_score": 9.0, "last_updated": "2026-06-11T13:56:27.956741+00:00", "maneuver_count": 0}, "15": {"norad_id": "41599", "name": "CARTOSAT 2C", "tle1": "1 41599U 16040A   26162.33038600  .00001643  00000-0  81089-4 0  9993", "tle2": "2 41599  97.4486 222.3889 0010151 149.3774 210.8055 15.19267301552823", "object_type": "PAYLOAD", "criticality_score": 9.0, "last_updated": "2026-06-11T13:56:27.956741+00:00", "maneuver_count": 0}, "47": {"norad_id": "41339", "name": "CHUBUSAT 3", "tle1": "1 41339U 16012C   26162.28896694  .00004248  00000-0  19553-3 0  9993", "tle2": "2 41339  31.0057   9.5349 0009307   4.8177 355.2552 15.18506085567301", "object_type": "PAYLOAD", "criticality_score": 9.0, "last_updated": "2026-06-11T13:56:27.956741+00:00", "maneuver_count": 0}, "49": {"norad_id": "40967", "name": "FOX-1", "tle1": "1 40967U 15058D   26161.77918419  .00002273  00000-0  21076-3 0  9990", "tle2": "2 40967  64.7757 298.8965 0130079  59.0997 302.2830 14.90938506112614", "object_type": "PAYLOAD", "criticality_score": 9.0, "last_updated": "2026-06-11T13:56:27.956741+00:00", "maneuver_count": 0}, "50": {"norad_id": "40958", "name": "LQSAT", "tle1": "1 40958U 15057A   26162.24278350  .00000463  00000-0  72837-4 0  9996", "tle2": "2 40958  97.6681 155.9120 0015625 294.7767  65.1818 14.76776739574438", "object_type": "PAYLOAD", "criticality_score": 9.0, "last_updated": "2026-06-11T13:56:27.956741+00:00", "maneuver_count": 0}, "109": {"norad_id": "41783", "name": "PRATHAM", "tle1": "1 41783U 16059A   26162.24216412  .00000503  00000-0  97217-4 0  9991", "tle2": "2 41783  97.8323 159.3611 0029957 236.1060 123.7295 14.67187119518641", "object_type": "PAYLOAD", "criticality_score": 9.0, "last_updated": "2026-06-11T13:56:27.956741+00:00", "maneuver_count": 0}, "138": {"norad_id": "41603", "name": "LAPAN A3", "tle1": "1 41603U 16040E   26162.25156476  .00002829  00000-0  90770-4 0  9996", "tle2": "2 41603  97.1484 158.5923 0011539  45.2474 314.9706 15.33066222553909", "object_type": "PAYLOAD", "criticality_score": 9.0, "last_updated": "2026-06-11T13:56:27.956741+00:00", "maneuver_count": 0}, "139": {"norad_id": "41340", "name": "HORYU 4", "tle1": "1 41340U 16012D   26161.10844880  .00337518  00000-0  10043-2 0  9998", "tle2": "2 41340  30.9844 130.8123 0003461 226.4757 133.5616 15.90526809569681", "object_type": "PAYLOAD", "criticality_score": 9.0, "last_updated": "2026-06-11T13:56:27.956741+00:00", "maneuver_count": 0}, "140": {"norad_id": "41338", "name": "CHUBUSAT 2", "tle1": "1 41338U 16012B   26162.23792975  .00004874  00000-0  21029-3 0  9990", "tle2": "2 41338  30.9981   0.4282 0008860  16.3576 343.7350 15.20818782567518", "object_type": "PAYLOAD", "criticality_score": 9.0, "last_updated": "2026-06-11T13:56:27.956741+00:00", "maneuver_count": 0}, "187": {"norad_id": "40959", "name": "LINGQIAO VIDEO A", "tle1": "1 40959U 15057B   26162.26602451  .00000414  00000-0  65003-4 0  9995", "tle2": "2 40959  97.6622 157.3602 0015344 291.7306  68.2272 14.77384017574533", "object_type": "PAYLOAD", "criticality_score": 9.0, "last_updated": "2026-06-11T13:56:27.956741+00:00", "maneuver_count": 0}, "188": {"norad_id": "40960", "name": "LINGQIAO VIDEO B", "tle1": "1 40960U 15057C   26162.31084573  .00000928  00000-0  13668-3 0  9991", "tle2": "2 40960  97.6588 158.5680 0015454 291.4393  68.5170 14.77493107574586", "object_type": "PAYLOAD", "criticality_score": 9.0, "last_updated": "2026-06-11T13:56:27.956741+00:00", "maneuver_count": 0}, "190": {"norad_id": "40961", "name": "JILIN 1", "tle1": "1 40961U 15057D   26162.25931709  .00000695  00000-0  10254-3 0  9996", "tle2": "2 40961  97.6507 161.9204 0015363 284.3704  75.5802 14.78150464574738", "object_type": "PAYLOAD", "criticality_score": 9.0, "last_updated": "2026-06-11T13:56:27.956741+00:00", "maneuver_count": 0}, "369": {"norad_id": "41105", "name": "ELEKTRO-L 2", "tle1": "1 41105U 15074A   26161.97872950 -.00000103  00000-0  00000-0 0  9996", "tle2": "2 41105   6.6771  70.6006 0000814 270.8986 255.6834  1.00271247 38448", "object_type": "PAYLOAD", "criticality_score": 9.0, "last_updated": "2026-06-11T13:56:27.956741+00:00", "maneuver_count": 0}, "413": {"norad_id": "41556", "name": "ZY 3 2", "tle1": "1 41556U 16033A   26162.27051852  .00004313  00000-0  19492-3 0  9990", "tle2": "2 41556  97.3838 238.1578 0011446 313.4061  46.6222 15.21423213557080", "object_type": "PAYLOAD", "criticality_score": 9.0, "last_updated": "2026-06-11T13:56:27.956741+00:00", "maneuver_count": 0}, "436": {"norad_id": "41727", "name": "GAOFEN 3", "tle1": "1 41727U 16049A   26162.32559876  .00000270  00000-0  95256-4 0  9993", "tle2": "2 41727  98.4015 170.2002 0001285  98.8764 261.2572 14.42215539517802", "object_type": "PAYLOAD", "criticality_score": 9.0, "last_updated": "2026-06-11T13:56:27.956741+00:00", "maneuver_count": 0}, "464": {"norad_id": "41179", "name": "ORBCOMM FM 114", "tle1": "1 41179U 15081A   26161.33530056  .00000390  00000-0  11875-3 0  9995", "tle2": "2 41179  47.0059  34.3990 0002055 179.4060 180.6828 14.58850721556758", "object_type": "PAYLOAD", "criticality_score": 9.0, "last_updated": "2026-06-11T13:56:27.956741+00:00", "maneuver_count": 0}, "465": {"norad_id": "41182", "name": "ORBCOMM FM 110", "tle1": "1 41182U 15081D   26161.94016889  .00000595  00000-0  16201-3 0  9994", "tle2": "2 41182  47.0029  30.9800 0002739  38.8036 321.3046 14.58870704556716", "object_type": "PAYLOAD", "criticality_score": 9.0, "last_updated": "2026-06-11T13:56:27.956741+00:00", "maneuver_count": 0}, "466": {"norad_id": "41188", "name": "ORBCOMM FM 117", "tle1": "1 41188U 15081K   26161.60951894  .00000375  00000-0  11561-3 0  9997", "tle2": "2 41188  47.0000 211.9327 0003140 197.2897 162.7882 14.58860318559165", "object_type": "PAYLOAD", "criticality_score": 9.0, "last_updated": "2026-06-11T13:56:27.956741+00:00", "maneuver_count": 0}, "467": {"norad_id": "41189", "name": "ORBCOMM FM 116", "tle1": "1 41189U 15081L   26162.06944096  .00000524  00000-0  14702-3 0  9991", "tle2": "2 41189  47.0034 299.5479 0000895  20.3124 339.7798 14.58873761558040", "object_type": "PAYLOAD", "criticality_score": 9.0, "last_updated": "2026-06-11T13:56:27.956741+00:00", "maneuver_count": 0}, "468": {"norad_id": "41185", "name": "ORBCOMM FM 113", "tle1": "1 41185U 15081G   26162.09249909  .00000347  00000-0  10965-3 0  9991", "tle2": "2 41185  47.0018 299.4404 0001933 200.8017 159.2791 14.58852234558045", "object_type": "PAYLOAD", "criticality_score": 9.0, "last_updated": "2026-06-11T13:56:27.956741+00:00", "maneuver_count": 0}, "469": {"norad_id": "41184", "name": "ORBCOMM FM 112", "tle1": "1 41184U 15081F   26162.11606264  .00000501  00000-0  14209-3 0  9991", "tle2": "2 41184  47.0000 298.9558 0003377 191.4883 168.5926 14.58895056558063", "object_type": "PAYLOAD", "criticality_score": 9.0, "last_updated": "2026-06-11T13:56:27.956741+00:00", "maneuver_count": 0}, "470": {"norad_id": "41187", "name": "ORBCOMM FM 108", "tle1": "1 41187U 15081J   26161.84948337  .00000359  00000-0  11220-3 0  9994", "tle2": "2 41187  47.0039 212.1631 0002634 196.7384 163.3416 14.58864191559151", "object_type": "PAYLOAD", "criticality_score": 9.0, "last_updated": "2026-06-11T13:56:27.956741+00:00", "maneuver_count": 0}, "476": {"norad_id": "41877", "name": "RESOURCESAT 2A", "tle1": "1 41877U 16074A   26162.29945993 -.00000082  00000-0 -17301-4 0  9990", "tle2": "2 41877  98.7526 235.8517 0003365  94.9182 265.2380 14.21614292493461", "object_type": "PAYLOAD", "criticality_score": 9.0, "last_updated": "2026-06-11T13:56:27.956741+00:00", "maneuver_count": 0}, "605": {"norad_id": "40920", "name": "COSMOS 2507", "tle1": "1 40920U 15050A   26162.27564102  .00000024  00000-0  10003-3 0  9993", "tle2": "2 40920  82.4918  83.3499 0010471   9.2349 350.8921 12.42926753486125", "object_type": "PAYLOAD", "criticality_score": 9.0, "last_updated": "2026-06-11T13:56:27.956741+00:00", "maneuver_count": 0}, "606": {"norad_id": "40921", "name": "COSMOS 2508", "tle1": "1 40921U 15050B   26162.23060510  .00000005  00000-0 -38223-4 0  9999", "tle2": "2 40921  82.4871  81.8854 0015331  39.1577 321.0609 12.42914046486100", "object_type": "PAYLOAD", "criticality_score": 9.0, "last_updated": "2026-06-11T13:56:27.956741+00:00", "maneuver_count": 0}, "607": {"norad_id": "40922", "name": "COSMOS 2509", "tle1": "1 40922U 15050C   26162.25079598  .00000025  00000-0  10869-3 0  9994", "tle2": "2 40922  82.4880  81.9745 0015819  55.0391 305.2172 12.42883596486141", "object_type": "PAYLOAD", "criticality_score": 9.0, "last_updated": "2026-06-11T13:56:27.956741+00:00", "maneuver_count": 0}, "631": {"norad_id": "41857", "name": "YUNHAI 1", "tle1": "1 41857U 16068A   26162.29998103  .00000273  00000-0  11660-3 0  9993", "tle2": "2 41857  98.5836 173.3620 0006392  57.5683 302.6118 14.32701383500987", "object_type": "PAYLOAD", "criticality_score": 9.0, "last_updated": "2026-06-11T13:56:27.956741+00:00", "maneuver_count": 0}, "664": {"norad_id": "41173", "name": "DAMPE", "tle1": "1 41173U 15078A   26162.28525852  .00001146  00000-0  41078-4 0  9997", "tle2": "2 41173  97.4562 167.7233 0013785  95.5373 264.7441 15.30769918583649", "object_type": "PAYLOAD", "criticality_score": 9.0, "last_updated": "2026-06-11T13:56:27.956741+00:00", "maneuver_count": 0}}}