OBJECT_NAME,OBJECT_ID,EPOCH,MEAN_MOTION,ECCENTRICITY,INCLINATION,RA_OF_ASC_NODE,ARG_OF_PERICENTER,MEAN_ANOMALY,EPHEMERIS_TYPE,CLASSIFICATION_TYPE,NORAD_CAT_ID,ELEMENT_SET_NO,REV_AT_EPOCH,BSTAR,MEAN_MOTION_DOT,MEAN_MOTION_DDOT
COSMOS 2507 (RODNIK-S 13),2015-050A,2026-06-11T06:36:55.384128,12.42926753,.00104705,82.4918,83.3499,9.2349,350.8921,0,U,40920,999,48612,.10002997E-3,.24E-6,0
COSMOS 2508 (RODNIK-S 14),2015-050B,2026-06-11T05:32:04.280640,12.42914046,.00153309,82.4871,81.8854,39.1577,321.0609,0,U,40921,999,48610,-.38223106E-4,.5E-7,0
COSMOS 2509 (RODNIK-S 15),2015-050C,2026-06-11T06:01:08.772672,12.42883596,.00158193,82.4880,81.9745,55.0391,305.2172,0,U,40922,999,48614,.10868543E-3,.25E-6,0
LQSAT,2015-057A,2026-06-11T05:49:36.494400,14.76776739,.00156246,97.6681,155.9120,294.7767,65.1818,0,U,40958,999,57443,.7283736E-4,.463E-5,0
LINGQIAO VIDEO A,2015-057B,2026-06-11T06:23:04.517664,14.77384017,.0015344,97.6622,157.3602,291.7306,68.2272,0,U,40959,999,57453,.65002877E-4,.414E-5,0
LINGQIAO VIDEO B,2015-057C,2026-06-11T07:27:37.071072,14.77493107,.0015454,97.6588,158.5680,291.4393,68.5170,0,U,40960,999,57458,.13667982E-3,.928E-5,0
JILIN-1,2015-057D,2026-06-11T06:13:24.996576,14.78150464,.00153635,97.6507,161.9204,284.3704,75.5802,0,U,40961,999,57473,.10253653E-3,.695E-5,0
FOX-1A (AO-85),2015-058D,2026-06-10T18:42:01.514016,14.90938506,.01300789,64.7757,298.8965,59.0997,302.2830,0,U,40967,999,11261,.21076165E-3,.2273E-4,0
ELEKTRO-L 2,2015-074A,2026-06-10T23:29:22.228800,1.00271247,.00008138,6.6771,70.6006,270.8986,255.6834,0,U,41105,999,3844,0,-.103E-5,0
DAMPE,2015-078A,2026-06-11T06:50:46.336128,15.30769918,.00137846,97.4562,167.7233,95.5373,264.7441,0,U,41173,999,58364,.41078496E-4,.1146E-4,0
ORBCOMM FM114,2015-081A,2026-06-10T08:02:49.968384,14.58850721,.00020551,47.0059,34.3990,179.4060,180.6828,0,U,41179,999,55675,.1187471E-3,.39E-5,0
ORBCOMM FM110,2015-081D,2026-06-10T22:33:50.592096,14.58870704,.00027391,47.0029,30.9800,38.8036,321.3046,0,U,41182,999,55671,.16200538E-3,.595E-5,0
ORBCOMM FM112,2015-081F,2026-06-11T02:47:07.812096,14.58895056,.00033774,47.0000,298.9558,191.4883,168.5926,0,U,41184,999,55806,.14209063E-3,.501E-5,0
ORBCOMM FM113,2015-081G,2026-06-11T02:13:11.921376,14.58852234,.00019333,47.0018,299.4404,200.8017,159.2791,0,U,41185,999,55804,.10964575E-3,.347E-5,0
ORBCOMM FM108,2015-081J,2026-06-10T20:23:15.363168,14.58864191,.00026335,47.0039,212.1631,196.7384,163.3416,0,U,41187,999,55915,.11220204E-3,.359E-5,0
ORBCOMM FM117,2015-081K,2026-06-10T14:37:42.436416,14.58860318,.00031402,47.0000,211.9327,197.2897,162.7882,0,U,41188,999,55916,.11561327E-3,.375E-5,0
ORBCOMM FM116,2015-081L,2026-06-11T01:39:59.698944,14.58873761,.00008948,47.0034,299.5479,20.3124,339.7798,0,U,41189,999,55804,.14701744E-3,.524E-5,0
CHUBUSAT-2,2016-012B,2026-06-11T05:42:37.130400,15.20818782,.00088599,30.9981,0.4282,16.3576,343.7350,0,U,41338,999,56751,.21028796E-3,.4874E-4,0
CHUBUSAT-3,2016-012C,2026-06-11T06:56:06.743616,15.18506085,.0009307,31.0057,9.5349,4.8177,355.2552,0,U,41339,999,56730,.19552725E-3,.4248E-4,0
HORYU-4,2016-012D,2026-06-10T02:36:09.976320,15.90526809,.00034613,30.9844,130.8123,226.4757,133.5616,0,U,41340,999,56968,.10043265E-2,.337518E-2,0
ZIYUAN 3-02 (ZY 3-02),2016-033A,2026-06-11T06:29:32.800128,15.21423213,.00114461,97.3838,238.1578,313.4061,46.6222,0,U,41556,999,55708,.19492384E-3,.4313E-4,0
CARTOSAT-2C,2016-040A,2026-06-11T07:55:45.350400,15.19267301,.00101509,97.4486,222.3889,149.3774,210.8055,0,U,41599,999,55282,.81088786E-4,.1643E-4,0
LAPAN-A3,2016-040E,2026-06-11T06:02:15.195264,15.33066222,.00115394,97.1484,158.5923,45.2474,314.9706,0,U,41603,999,55390,.90770243E-4,.2829E-4,0
GAOFEN-3,2016-049A,2026-06-11T07:48:51.732864,14.42215539,.0001285,98.4015,170.2002,98.8764,261.2572,0,U,41727,999,51780,.95255908E-4,.27E-5,0
PRATHAM,2016-059A,2026-06-11T05:48:42.979968,14.67187119,.00299569,97.8323,159.3611,236.1060,123.7295,0,U,41783,999,51864,.9721749E-4,.503E-5,0
ALSAT-1N,2016-059G,2026-06-11T06:12:50.128128,14.69297601,.00249942,97.8011,165.8737,204.0509,155.9532,0,U,41789,999,51913,.13689763E-3,.764E-5,0
CAS-2T & KS-1Q,2016-066G,2026-06-11T05:09:23.656896,14.44674149,.03425915,98.3821,238.0193,147.5449,214.7325,0,U,41847,999,50393,.21323128E-3,.1469E-4,0
YUNHAI-1 01,2016-068A,2026-06-11T07:11:58.360992,14.32701383,.00063925,98.5836,173.3620,57.5683,302.6118,0,U,41857,999,50098,.11659837E-3,.273E-5,0
RESOURCESAT-2A,2016-074A,2026-06-11T07:11:13.337952,14.21614292,.00033646,98.7526,235.8517,94.9182,265.2380,0,U,41877,999,49346,-.17301034E-4,-.82E-6,0
